#dP2025  1 27  0  0  0.00000000      96 __u+U IGS20 FIT  IAC
## 2351  86400.00000000   900.00000000 60702 0.0000000000000
+  130   C01C02C03C04C05C06C07C08C09C10C11C12C13C14C16C19C20
+        C21C22C23C24C25C26C27C28C29C30C32C33C34C35C36C37C38
+        C39C40C41C42C43C44C45C59C60C62E02E03E04E05E06E07E08
+        E09E10E11E13E14E15E18E19E21E24E25E26E27E29E30E31E33
+        E34E36G01G02G03G04G05G06G07G08G09G10G11G12G13G14G15
+        G16G17G18G19G20G21G22G23G24G25G26G27G28G29G30G31G32
+        J02J03J04J07R01R02R03R04R05R06R07R08R09R10R11R12R13
+        R14R15R16R17R18R19R20R21R22R23R24  0  0  0  0  0  0
++        17 16 16 16 16  9  9  0  9  9  9  9  9  9  9  7  7
++         7  7  7  7  7  7  7  7  7  7  7  7  7  7  7  7  8
++         8  8  7  7  7  7  7  0 17 17  4  4  4  4  4  4  4
++         4  4  4  4  4  4  4  4  4  4  3  4  4  4  4  4  4
++         4  4  4  4  3  4  4  3  4  4  4  4  3  3  4  4  4
++         4  4  4  4  4  4  4  4  4  3  4  4  3  4  4  3  4
++        10 10 13 16  7  6  6  6  6  6  6  6  6 14  6  6 14
++         6  6  6  6  6  7  8  6  6 14  6  0  0  0  0  0  0
%c M  cc GPS ccc cccc cccc cccc cccc ccccc ccccc ccccc ccccc
%c cc cc ccc ccc cccc cccc cccc cccc ccccc ccccc ccccc ccccc
%f  0.0000000  0.000000000  0.00000000000  0.000000000000000
%f  0.0000000  0.000000000  0.00000000000  0.000000000000000
%i    0    0    0    0      0      0      0      0         0
%i    0    0    0    0      0      0      0      0         0
/* INFORMATION & ANALYSIS CENTER (IAC)            RAPID DATA
/* S/V CLOCKS ARE ALIGNED TO GNSS TIME                      
/* G:C1WC2W R:C1PC2P E:C1XC5X C:C2IC6I J:C1CC2S             
/* PCV:IGS20_2350 OL/AL:FES2004  NONE     YN ORB:CoN CLK:CoN
*  2025 01 27 13 30  0.00000000
PC01 -34326.114250  24498.888001    957.972160   -350.602968
PC02   4355.507876  41898.597468   -983.355918    643.445876
PC03 -14818.447712  39439.097034    298.466527    769.374610
PC04 -39585.972207  14517.188757   1523.722680   -349.920646
PC05  21728.400073  36103.141499  -1166.222666   -295.805595
PC06  -7372.397854  23448.813266 -34161.978524    717.384403
PC07 -16754.372837  36914.267559  11230.882406    209.724968
PC08      0.000000      0.000000      0.000000 999999.999999
PC09   1830.177426  25636.810565 -32801.028531   -870.650330
PC10  -9728.853783  37018.420082  17379.425396   -416.602559
PC11 -13339.090610  14960.967295  19490.175427    356.699677
PC12 -26719.623892   6862.434431   4291.030722   -207.687546
PC13   2789.132450  39721.507612  14484.888017     60.626422
PC14 -10642.858319  25710.393915   1658.340978   -706.852893
PC16  -8876.804341  22262.686088 -34352.422309    -93.936529
PC19   4423.708317 -26514.781579   7571.714198   -962.344955
PC20  14586.829540 -22039.695605  -8996.354796   -868.218502
PC21 -16937.125169   3476.964276  21913.335555   -903.989578
PC22  -8943.675862 -16143.029466  20938.345230    242.111241
PC23  18056.783770  21281.534776    203.905954   -953.584047
PC24 -12609.219760  10459.754767 -22616.060031    676.971384
PC25   4543.304147  22515.229384 -15881.379295    628.876771
PC26 -21629.629106  -6822.038313 -16262.842289   -411.640202
PC27  27432.341699  -1112.109270   4949.156561    429.180855
PC28  19332.731664   9443.795362  17775.881139    336.261040
PC29   3295.177858 -16716.186810 -22103.397881    394.668586
PC30  22202.258701 -12731.414088 -11101.862946     90.478625
PC32  16896.183153  -3545.412241 -21911.806578   -897.605366
PC33  -4312.289446  26536.292530  -7444.047798   -949.312659
PC34 -21029.744656  13477.710341  12455.846083    616.439802
PC35 -19002.325148  -9277.059394 -18244.234012    142.038569
PC36  -4291.640711 -22689.144897  15670.120524    257.548739
PC37  21575.608293   7823.175721  15893.341664   -908.160473
PC38  -6853.720077  32965.764631  25529.595597    205.277142
PC39 -16058.107608  20002.792906 -33461.313943    -10.823917
PC40 -24204.708271  32629.749105  10636.923445   -117.285413
PC41   8382.825335  16999.525545 -20418.534663   -882.526666
PC42 -15306.814381  20676.716829  10815.136686   -579.496674
PC43  -4122.329132  16870.785956  21837.797627     99.628571
PC44 -27379.305456   2069.037517  -5098.480104    723.261984
PC45 -17647.436943 -21596.561270    341.370231   -219.819325
PC59      0.000000      0.000000      0.000000 999999.999999
PC60   7269.915256  41532.695975    415.083201      0.648631
PC62 -39608.834205  14431.384908   -374.198549      0.159339
PE02 -14655.999798  12807.611347 -22320.081359    193.186397
PE03 -25382.319180  14939.145803   2899.684639   -169.270515
PE04  12919.404049 -21763.742377  15358.029308   -142.919710
PE05 -22648.940872   -524.277963  19053.706174   4822.596240
PE06   3129.549618 -20290.681732  21308.900291    -75.381326
PE07   6382.188104  15921.442801 -24118.141482   -165.843015
PE08 -13602.088222  21660.573374 -14891.592699   -407.352993
PE09  -6214.967631 -15857.943085  24211.312130   -753.779090
PE10  -7580.502809 -18956.427960 -21431.048807   -686.016045
PE11 -17789.160867 -18899.936345 -14251.043004   -583.648451
PE13  17312.353517  18940.961067  14753.345329    -29.664440
PE14  25621.033479 -19515.128241   -592.307068    643.871839
PE15  -3255.347804  16038.735408  24675.451166   -153.554433
PE18 -19918.414864  12834.360249  -1295.005353   1045.461589
PE19  25829.739163 -13736.548111  -4492.956265   1295.080550
PE21  16487.476753   9365.131087  22721.619364   -642.723061
PE24  -8630.640227 -26581.535184  -9738.263832  -1235.848127
PE25 -16416.975251  -9866.077589 -22569.491670     13.682108
PE26  27421.680752  10396.377113  -3982.181969   -141.998188
PE27   8636.656070  26609.215167   9685.201003   -567.226455
PE29  22897.681621    376.889928 -18749.016650    -65.605375
PE30  -4187.961849  27987.201892  -8728.694282  -1180.249968
PE31   4198.605285 -27917.083800   8881.624861    -52.218056
PE33  21825.891402  -3454.740376 -19682.847530     16.437426
PE34 -21554.512480   3805.206990  19930.211347   -160.124458
PE36 -27362.369604 -10736.816011   3572.322566   -344.925973
PG01 -19825.395974 -15655.867752  -8217.562977     80.433645
PG02 -20137.525020 -13465.516527 -10882.634404   -257.672035
PG03 -11957.771671 -19618.077153  13260.796852    653.668942
PG04 -13745.855765  -7997.537530  21317.617907    518.334459
PG05   5671.984647  25911.551381   -159.093607   -200.239413
PG06 -14109.956112   9046.783404  20709.251826   -147.510966
PG07 -25586.954593  -6435.247072  -4162.776419    -13.387740
PG08  -4279.529778 -16064.339211 -20756.019192    469.180562
PG09 -19995.570339   1235.881392  17383.650178    544.884894
PG10  11077.775819 -13339.547434 -19777.710828   -294.251401
PG11  -1770.344021  15464.600956  21566.794538   -750.250382
PG12   9863.101734  21910.754060  11075.520206   -566.859706
PG13  -6250.579224  18323.959438 -18305.885231    694.746497
PG14 -13710.245236   9463.136942 -20590.613066    587.773978
PG15   6733.040695  15561.595601 -20941.276790    256.547157
PG16   1117.491597 -25852.923449   4436.618144    -67.563383
PG17 -22877.789871  12840.733996  -4402.765622    454.628800
PG18  25218.780203   4688.807674  -7301.924679   -656.146585
PG19 -19455.882490  16979.152374   4972.669391    591.139999
PG20   -855.522619  23565.194779  12435.626998    366.753768
PG21 -14808.691580 -15568.610320 -15936.831932    101.680092
PG22 -10408.286628  17674.166644 -16660.394159    -94.361040
PG23  15183.699258   2576.390399 -21623.932451    412.065384
PG24  17952.953885  14994.281254 -13416.127484   -459.277399
PG25  15524.312767  10364.845667  18630.874466    496.064077
PG26   5869.259163 -21061.991126  14620.527597    -65.540533
PG27   7399.544076 -20328.408348 -15419.665443    -32.453767
PG28  15752.342834  -8940.323133  19416.709188   -545.698253
PG29  20104.115070    486.623842  17367.449684   -543.305919
PG30 -21907.446455   3385.787389 -14670.591956   -229.765783
PG31   7419.436000 -13408.984245  21459.195660   -216.920237
PG32  20424.605019 -16794.378788   -349.999261   -533.633601
PJ02 -23259.481962  29447.301787 -14503.777906     -0.843994
PJ03 -28148.747221  22870.680364  26600.522911     -0.323594
PJ04 -30276.118402  29030.935796   9835.007863 999999.999999
PJ07 -25416.969974  33647.578722    -25.707185     -0.061103
PR01 -12272.692622    422.494415  22360.898181    112.671383
PR02 -16077.240670  15612.655589  12299.309257    -38.064441
PR03 -10527.589162  22667.639028  -5212.000699    115.719679
PR04    130.531524  16812.238273 -19157.317616    274.450657
PR05  10966.127798   2227.978884 -22905.159159    144.451612
PR06    696.013382 -17963.659768  18129.508351   -131.380083
PR07  10287.601780 -22621.269104   5675.934932     99.655040
PR08   -671.051013 -16620.382351  19388.455880     -6.311338
PR09  10623.253799  -4336.782733  22791.543186    234.521714
PR10    495.930116 -17088.807529  18881.122783   -277.008718
PR11 -10857.516937 -22703.110162   4227.310984     -4.072142
PR12 -15877.660279 -13465.896838 -14713.335232     50.095468
PR13 -11792.799992   1420.271016 -22594.044788    -55.769693
PR14    761.821779  18331.289034 -17708.069306     27.660634
PR15  11635.435379  22573.604755  -2348.321948     71.771750
PR16  15834.614313  13564.038274  14672.076901     32.799845
PR17  -7700.937578  10069.366600  22139.904290    161.124845
PR18  10073.051161   9915.308485  21238.775994    184.041832
PR19  21976.262927   6363.255837  11282.086370   -307.010852
PR20  23229.751974  -3073.862558 -10011.964575   -125.052224
PR21   9257.401465  -9670.361741 -21713.174066   -171.709212
PR22 -11249.255300 -10258.272099 -20442.363642    -57.937873
PR23 -23374.540860  -4877.434208  -8988.370283   -145.273607
PR24 -22823.139831   4677.528946  10394.616127    -89.921814
EOF
